start=new Date('2022-12-03T00:00:00.000Z').valueOf();
sats=[{"SEMIMAJOR_AXIS":"6917.893","RCS_SIZE":"LARGE","MEAN_ANOMALY":"313.0695","NORAD_CAT_ID":"52689","TIME_SYSTEM":"UTC","MEAN_MOTION":"15.08836006","OBJECT_TYPE":"PAYLOAD","ELEMENT_SET_NO":"999","ECCENTRICITY":"0.00025350","CLASSIFICATION_TYPE":"U","REF_FRAME":"TEME","BSTAR":"0.00008167000000","OBJECT_NAME":"STARLINK-4078","MEAN_MOTION_DDOT":"0.0000000000000","GP_ID":"219382754","EPOCH":"2022-12-02T17:31:57.374688","DECAY_DATE":null,"APOAPSIS":"541.511","LAUNCH_DATE":"2022-05-18","CENTER_NAME":"EARTH","TLE_LINE1":"1 52689U 22053AK  22336.73052517  .00001011  00000-0  81670-4 0  9997","TLE_LINE2":"2 52689  53.2189  99.5332 0002535  47.0510 313.0695 15.08836006 31056","MEAN_MOTION_DOT":"0.00001011","REV_AT_EPOCH":"3105","MEAN_ELEMENT_THEORY":"SGP4","FILE":"3679625","COUNTRY_CODE":"US","EPHEMERIS_TYPE":"0","PERIOD":"95.438","SITE":"AFETR","INCLINATION":"53.2189","ARG_OF_PERICENTER":"47.0510","PERIAPSIS":"538.004","OBJECT_ID":"2022-053AK","RA_OF_ASC_NODE":"99.5332"},{"REF_FRAME":"TEME","CLASSIFICATION_TYPE":"U","ELEMENT_SET_NO":"999","ECCENTRICITY":"0.00022090","MEAN_MOTION":"15.08845151","OBJECT_TYPE":"PAYLOAD","NORAD_CAT_ID":"52690","TIME_SYSTEM":"UTC","RCS_SIZE":"LARGE","MEAN_ANOMALY":"309.1295","SEMIMAJOR_AXIS":"6917.865","DECAY_DATE":null,"APOAPSIS":"541.258","LAUNCH_DATE":"2022-05-18","GP_ID":"219383506","EPOCH":"2022-12-02T17:58:26.505696","MEAN_MOTION_DDOT":"0.0000000000000","OBJECT_NAME":"STARLINK-4035","BSTAR":"0.00008756900000","COUNTRY_CODE":"US","FILE":"3679625","TLE_LINE2":"2 52690  53.2182  99.4434 0002209  50.9893 309.1295 15.08845151 31028","MEAN_MOTION_DOT":"0.00001106","REV_AT_EPOCH":"3102","MEAN_ELEMENT_THEORY":"SGP4","TLE_LINE1":"1 52690U 22053AL  22336.74891789  .00001106  00000-0  87569-4 0  9990","CENTER_NAME":"EARTH","RA_OF_ASC_NODE":"99.4434","PERIAPSIS":"538.201","OBJECT_ID":"2022-053AL","ARG_OF_PERICENTER":"50.9893","SITE":"AFETR","INCLINATION":"53.2182","EPHEMERIS_TYPE":"0","PERIOD":"95.437"},{"CENTER_NAME":"EARTH","FILE":"3679245","COUNTRY_CODE":"US","TLE_LINE1":"1 52691U 22053AM  22336.39564291  .00001659  00000-0  12230-3 0  9992","MEAN_ELEMENT_THEORY":"SGP4","TLE_LINE2":"2 52691  53.2192 101.0300 0001575  49.8991 310.2139 15.08838280 31006","REV_AT_EPOCH":"3100","MEAN_MOTION_DOT":"0.00001659","SITE":"AFETR","INCLINATION":"53.2192","PERIOD":"95.438","EPHEMERIS_TYPE":"0","OBJECT_ID":"2022-053AM","PERIAPSIS":"538.661","RA_OF_ASC_NODE":"101.0300","ARG_OF_PERICENTER":"49.8991","RCS_SIZE":"LARGE","MEAN_ANOMALY":"310.2139","TIME_SYSTEM":"UTC","NORAD_CAT_ID":"52691","SEMIMAJOR_AXIS":"6917.886","REF_FRAME":"TEME","CLASSIFICATION_TYPE":"U","MEAN_MOTION":"15.08838280","OBJECT_TYPE":"PAYLOAD","ECCENTRICITY":"0.00015750","ELEMENT_SET_NO":"999","BSTAR":"0.00012230000000","EPOCH":"2022-12-02T09:29:43.547424","GP_ID":"219351142","APOAPSIS":"540.840","LAUNCH_DATE":"2022-05-18","DECAY_DATE":null,"OBJECT_NAME":"STARLINK-3945","MEAN_MOTION_DDOT":"0.0000000000000"},{"CLASSIFICATION_TYPE":"U","REF_FRAME":"TEME","MEAN_MOTION":"15.08840129","OBJECT_TYPE":"PAYLOAD","ELEMENT_SET_NO":"999","ECCENTRICITY":"0.00018160","RCS_SIZE":"LARGE","MEAN_ANOMALY":"309.4743","TIME_SYSTEM":"UTC","NORAD_CAT_ID":"52692","SEMIMAJOR_AXIS":"6917.880","EPOCH":"2022-12-02T17:42:33.202656","GP_ID":"219382004","APOAPSIS":"541.001","LAUNCH_DATE":"2022-05-18","DECAY_DATE":null,"MEAN_MOTION_DDOT":"0.0000000000000","OBJECT_NAME":"STARLINK-3993","BSTAR":"0.00006913100000","FILE":"3679625","COUNTRY_CODE":"US","TLE_LINE1":"1 52692U 22053AN  22336.73788429  .00000812  00000-0  69131-4 0  9995","MEAN_ELEMENT_THEORY":"SGP4","TLE_LINE2":"2 52692  53.2194  99.4890 0001816  50.6410 309.4743 15.08840129 31058","MEAN_MOTION_DOT":"0.00000812","REV_AT_EPOCH":"3105","CENTER_NAME":"EARTH","OBJECT_ID":"2022-053AN","PERIAPSIS":"538.489","RA_OF_ASC_NODE":"99.4890","ARG_OF_PERICENTER":"50.6410","SITE":"AFETR","INCLINATION":"53.2194","PERIOD":"95.438","EPHEMERIS_TYPE":"0"},{"PERIAPSIS":"538.031","OBJECT_ID":"2022-053AP","RA_OF_ASC_NODE":"99.8775","ARG_OF_PERICENTER":"55.5220","INCLINATION":"53.2201","SITE":"AFETR","PERIOD":"95.438","EPHEMERIS_TYPE":"0","FILE":"3679625","COUNTRY_CODE":"US","TLE_LINE1":"1 52693U 22053AP  22336.65324567  .00000100  00000-0  24399-4 0  9993","MEAN_ELEMENT_THEORY":"SGP4","TLE_LINE2":"2 52693  53.2201  99.8775 0002489  55.5220 304.6007 15.08837413 31045","REV_AT_EPOCH":"3104","MEAN_MOTION_DOT":"0.00000100","CENTER_NAME":"EARTH","EPOCH":"2022-12-02T15:40:40.425888","GP_ID":"219382254","LAUNCH_DATE":"2022-05-18","APOAPSIS":"541.475","DECAY_DATE":null,"MEAN_MOTION_DDOT":"0.0000000000000","OBJECT_NAME":"STARLINK-3946","BSTAR":"0.00002439900000","CLASSIFICATION_TYPE":"U","REF_FRAME":"TEME","OBJECT_TYPE":"PAYLOAD","MEAN_MOTION":"15.08837413","ECCENTRICITY":"0.00024890","ELEMENT_SET_NO":"999","MEAN_ANOMALY":"304.6007","RCS_SIZE":"LARGE","TIME_SYSTEM":"UTC","NORAD_CAT_ID":"52693","SEMIMAJOR_AXIS":"6917.888"},{"SEMIMAJOR_AXIS":"6917.887","RCS_SIZE":"LARGE","MEAN_ANOMALY":"310.6156","NORAD_CAT_ID":"52694","TIME_SYSTEM":"UTC","MEAN_MOTION":"15.08837908","OBJECT_TYPE":"PAYLOAD","ECCENTRICITY":"0.00024500","ELEMENT_SET_NO":"999","CLASSIFICATION_TYPE":"U","REF_FRAME":"TEME","BSTAR":"0.00007271100000","OBJECT_NAME":"STARLINK-4072","MEAN_MOTION_DDOT":"0.0000000000000","GP_ID":"219321991","EPOCH":"2022-12-02T08:04:56.494272","DECAY_DATE":null,"APOAPSIS":"541.447","LAUNCH_DATE":"2022-05-18","CENTER_NAME":"EARTH","TLE_LINE1":"1 52694U 22053AQ  22336.33676498  .00000869  00000-0  72711-4 0  9995","REV_AT_EPOCH":"3059","TLE_LINE2":"2 52694  53.2196 101.2900 0002450  49.5049 310.6156 15.08837908 30597","MEAN_MOTION_DOT":"0.00000869","MEAN_ELEMENT_THEORY":"SGP4","FILE":"3679018","COUNTRY_CODE":"US","EPHEMERIS_TYPE":"0","PERIOD":"95.438","SITE":"AFETR","INCLINATION":"53.2196","ARG_OF_PERICENTER":"49.5049","PERIAPSIS":"538.057","OBJECT_ID":"2022-053AQ","RA_OF_ASC_NODE":"101.2900"},{"ARG_OF_PERICENTER":"54.1976","RA_OF_ASC_NODE":"105.7440","OBJECT_ID":"2022-053AR","PERIAPSIS":"538.404","PERIOD":"95.437","EPHEMERIS_TYPE":"0","SITE":"AFETR","INCLINATION":"53.2190","MEAN_ELEMENT_THEORY":"SGP4","TLE_LINE2":"2 52695  53.2190 105.7440 0001924  54.1976 305.9195 15.08843271 30956","MEAN_MOTION_DOT":"0.00000069","REV_AT_EPOCH":"3095","TLE_LINE1":"1 52695U 22053AR  22336.46053327  .00000069  00000-0  22424-4 0  9998","COUNTRY_CODE":"US","FILE":"3679245","CENTER_NAME":"EARTH","MEAN_MOTION_DDOT":"0.0000000000000","OBJECT_NAME":"STARLINK-4041","LAUNCH_DATE":"2022-05-18","APOAPSIS":"541.066","DECAY_DATE":null,"EPOCH":"2022-12-02T11:03:10.074528","GP_ID":"219350642","BSTAR":"0.00002242400000","ECCENTRICITY":"0.00019240","ELEMENT_SET_NO":"999","OBJECT_TYPE":"PAYLOAD","MEAN_MOTION":"15.08843271","CLASSIFICATION_TYPE":"U","REF_FRAME":"TEME","SEMIMAJOR_AXIS":"6917.870","TIME_SYSTEM":"UTC","NORAD_CAT_ID":"52695","MEAN_ANOMALY":"305.9195","RCS_SIZE":"LARGE"},{"PERIOD":"95.437","EPHEMERIS_TYPE":"0","INCLINATION":"53.2200","SITE":"AFETR","ARG_OF_PERICENTER":"45.0414","OBJECT_ID":"2022-053AS","PERIAPSIS":"537.977","RA_OF_ASC_NODE":"99.5589","CENTER_NAME":"EARTH","TLE_LINE1":"1 52696U 22053AS  22336.72316055  .00000580  00000-0  54549-4 0  9999","MEAN_ELEMENT_THEORY":"SGP4","TLE_LINE2":"2 52696  53.2200  99.5589 0002552  45.0414 315.0785 15.08841018 31053","MEAN_MOTION_DOT":"0.00000580","REV_AT_EPOCH":"3105","FILE":"3679625","COUNTRY_CODE":"US","BSTAR":"0.00005454900000","OBJECT_NAME":"STARLINK-4025","MEAN_MOTION_DDOT":"0.0000000000000","EPOCH":"2022-12-02T17:21:21.071520","GP_ID":"219382505","APOAPSIS":"541.508","LAUNCH_DATE":"2022-05-18","DECAY_DATE":null,"SEMIMAJOR_AXIS":"6917.877","MEAN_ANOMALY":"315.0785","RCS_SIZE":"LARGE","TIME_SYSTEM":"UTC","NORAD_CAT_ID":"52696","MEAN_MOTION":"15.08841018","OBJECT_TYPE":"PAYLOAD","ELEMENT_SET_NO":"999","ECCENTRICITY":"0.00025520","REF_FRAME":"TEME","CLASSIFICATION_TYPE":"U"},{"RCS_SIZE":"LARGE","MEAN_ANOMALY":"311.3399","TIME_SYSTEM":"UTC","NORAD_CAT_ID":"52697","SEMIMAJOR_AXIS":"6917.903","CLASSIFICATION_TYPE":"U","REF_FRAME":"TEME","OBJECT_TYPE":"PAYLOAD","MEAN_MOTION":"15.08832516","ECCENTRICITY":"0.00031490","ELEMENT_SET_NO":"999","BSTAR":"0.00003015200000","EPOCH":"2022-12-02T15:59:56.552064","GP_ID":"219382755","APOAPSIS":"541.947","LAUNCH_DATE":"2022-05-18","DECAY_DATE":null,"MEAN_MOTION_DDOT":"0.0000000000000","OBJECT_NAME":"STARLINK-4018","CENTER_NAME":"EARTH","FILE":"3679625","COUNTRY_CODE":"US","TLE_LINE1":"1 52697U 22053AT  22336.66662676  .00000191  00000-0  30152-4 0  9998","MEAN_ELEMENT_THEORY":"SGP4","REV_AT_EPOCH":"3098","TLE_LINE2":"2 52697  53.2193 104.8163 0003149  48.7864 311.3399 15.08832516 30989","MEAN_MOTION_DOT":"0.00000191","SITE":"AFETR","INCLINATION":"53.2193","PERIOD":"95.438","EPHEMERIS_TYPE":"0","OBJECT_ID":"2022-053AT","PERIAPSIS":"537.590","RA_OF_ASC_NODE":"104.8163","ARG_OF_PERICENTER":"48.7864"},{"MEAN_MOTION_DDOT":"0.0000000000000","OBJECT_NAME":"STARLINK-4030","LAUNCH_DATE":"2022-05-18","APOAPSIS":"541.504","DECAY_DATE":null,"EPOCH":"2022-12-02T09:54:16.934400","GP_ID":"219350893","BSTAR":"0.00005934400000","ELEMENT_SET_NO":"999","ECCENTRICITY":"0.00025420","MEAN_MOTION":"15.08839845","OBJECT_TYPE":"PAYLOAD","REF_FRAME":"TEME","CLASSIFICATION_TYPE":"U","SEMIMAJOR_AXIS":"6917.881","TIME_SYSTEM":"UTC","NORAD_CAT_ID":"52698","RCS_SIZE":"MEDIUM","MEAN_ANOMALY":"316.6335","ARG_OF_PERICENTER":"43.4858","RA_OF_ASC_NODE":"105.9494","OBJECT_ID":"2022-053AU","PERIAPSIS":"537.987","PERIOD":"95.438","EPHEMERIS_TYPE":"0","INCLINATION":"53.2185","SITE":"AFETR","MEAN_ELEMENT_THEORY":"SGP4","TLE_LINE2":"2 52698  53.2185 105.9494 0002542  43.4858 316.6335 15.08839845 30936","REV_AT_EPOCH":"3093","MEAN_MOTION_DOT":"0.00000656","TLE_LINE1":"1 52698U 22053AU  22336.41269600  .00000656  00000-0  59344-4 0  9992","COUNTRY_CODE":"US","FILE":"3679245","CENTER_NAME":"EARTH"}];
